{
  "type": "FeatureCollection",
  "features": [
    {
      "type": "Feature",
      "properties": {
        "norad_id": 40894,
        "name": "GAOFEN-9 01",
        "group": "resource",
        "lat": 78.61465319688307,
        "lon": -14.845271479001234,
        "alt_km": 602.0517889515231,
        "timestamp": "2025-12-14T03:55:52.450569+00:00",
        "meta_object_name": "GAOFEN-9 01",
        "meta_object_id": "2015-047A",
        "meta_epoch": "2025-12-13T06:30:25.828128",
        "meta_mean_motion": 14.82425421,
        "meta_eccentricity": 0.00283371,
        "meta_inclination": 97.6546,
        "meta_ra_of_asc_node": 26.2037,
        "meta_arg_of_pericenter": 32.6574,
        "meta_mean_anomaly": 327.6385,
        "meta_ephemeris_type": 0,
        "meta_classification_type": "U",
        "meta_norad_cat_id": 40894,
        "meta_element_set_no": 999,
        "meta_rev_at_epoch": 55264,
        "meta_bstar": 0.00026692941,
        "meta_mean_motion_dot": 2.103e-05,
        "meta_mean_motion_ddot": 0,
        "tle_line1": "1 40894U 15047A   25347.27113227  .00002103  00000+0  26693-3 0  9992",
        "tle_line2": "2 40894  97.6546  26.2037 0028337  32.6574 327.6385 14.82425421552643"
      },
      "geometry": {
        "type": "Point",
        "coordinates": [
          -14.845271479001234,
          78.61465319688307
        ]
      }
    },
    {
      "type": "Feature",
      "properties": {
        "norad_id": 41026,
        "name": "YAOGAN-28",
        "group": "resource",
        "lat": 82.23287874608972,
        "lon": 56.32061250103898,
        "alt_km": 478.05517594628236,
        "timestamp": "2025-12-14T03:55:52.450580+00:00",
        "meta_object_name": "YAOGAN-28",
        "meta_object_id": "2015-064A",
        "meta_epoch": "2025-12-13T07:04:09.953760",
        "meta_mean_motion": 15.24371151,
        "meta_eccentricity": 0.00124017,
        "meta_inclination": 97.2801,
        "meta_ra_of_asc_node": 125.0709,
        "meta_arg_of_pericenter": 124.1344,
        "meta_mean_anomaly": 236.1072,
        "meta_ephemeris_type": 0,
        "meta_classification_type": "U",
        "meta_norad_cat_id": 41026,
        "meta_element_set_no": 999,
        "meta_rev_at_epoch": 56233,
        "meta_bstar": 0.00060657249,
        "meta_mean_motion_dot": 0.00014833,
        "meta_mean_motion_ddot": 0,
        "tle_line1": "1 41026U 15064A   25347.29455965  .00014833  00000+0  60657-3 0  9990",
        "tle_line2": "2 41026  97.2801 125.0709 0012401 124.1344 236.1072 15.24371151562333"
      },
      "geometry": {
        "type": "Point",
        "coordinates": [
          56.32061250103898,
          82.23287874608972
        ]
      }
    },
    {
      "type": "Feature",
      "properties": {
        "norad_id": 41038,
        "name": "YAOGAN-29",
        "group": "resource",
        "lat": -28.2777150102196,
        "lon": 15.690916451638403,
        "alt_km": 626.0017412851976,
        "timestamp": "2025-12-14T03:55:52.450590+00:00",
        "meta_object_name": "YAOGAN-29",
        "meta_object_id": "2015-069A",
        "meta_epoch": "2025-12-13T07:00:25.109856",
        "meta_mean_motion": 14.8288385,
        "meta_eccentricity": 1.598e-05,
        "meta_inclination": 98.0222,
        "meta_ra_of_asc_node": 10.4652,
        "meta_arg_of_pericenter": 298.1806,
        "meta_mean_anomaly": 61.9391,
        "meta_ephemeris_type": 0,
        "meta_classification_type": "U",
        "meta_norad_cat_id": 41038,
        "meta_element_set_no": 999,
        "meta_rev_at_epoch": 54307,
        "meta_bstar": 0.00013742591,
        "meta_mean_motion_dot": 1.059e-05,
        "meta_mean_motion_ddot": 0,
        "tle_line1": "1 41038U 15069A   25347.29195729  .00001059  00000+0  13743-3 0  9997",
        "tle_line2": "2 41038  98.0222  10.4652 0000159 298.1806  61.9391 14.82883850543073"
      },
      "geometry": {
        "type": "Point",
        "coordinates": [
          15.690916451638403,
          -28.2777150102196
        ]
      }
    },
    {
      "type": "Feature",
      "properties": {
        "norad_id": 41167,
        "name": "KENT RIDGE 1",
        "group": "resource",
        "lat": 14.60257304394048,
        "lon": -82.39696228228361,
        "alt_km": 494.3203032143838,
        "timestamp": "2025-12-14T03:55:52.450601+00:00",
        "meta_object_name": "KENT RIDGE 1",
        "meta_object_id": "2015-077B",
        "meta_epoch": "2025-12-12T23:16:30.783072",
        "meta_mean_motion": 15.21639218,
        "meta_eccentricity": 0.00085187,
        "meta_inclination": 14.9786,
        "meta_ra_of_asc_node": 209.434,
        "meta_arg_of_pericenter": 133.9708,
        "meta_mean_anomaly": 226.1317,
        "meta_ephemeris_type": 0,
        "meta_classification_type": "U",
        "meta_norad_cat_id": 41167,
        "meta_element_set_no": 999,
        "meta_rev_at_epoch": 55267,
        "meta_bstar": 0.00025287461,
        "meta_mean_motion_dot": 6.651e-05,
        "meta_mean_motion_ddot": 0,
        "tle_line1": "1 41167U 15077B   25346.96980073  .00006651  00000+0  25287-3 0  9995",
        "tle_line2": "2 41167  14.9786 209.4340 0008518 133.9708 226.1317 15.21639218552676"
      },
      "geometry": {
        "type": "Point",
        "coordinates": [
          -82.39696228228361,
          14.60257304394048
        ]
      }
    },
    {
      "type": "Feature",
      "properties": {
        "norad_id": 41194,
        "name": "GAOFEN-4",
        "group": "resource",
        "lat": 0.018737099989938836,
        "lon": -112.24088287305361,
        "alt_km": 35779.89106211868,
        "timestamp": "2025-12-14T03:55:52.450614+00:00",
        "meta_object_name": "GAOFEN-4",
        "meta_object_id": "2015-083A",
        "meta_epoch": "2025-12-13T01:58:07.760064",
        "meta_mean_motion": 1.00269408,
        "meta_eccentricity": 0.00034354,
        "meta_inclination": 0.1714,
        "meta_ra_of_asc_node": 81.1659,
        "meta_arg_of_pericenter": 105.4224,
        "meta_mean_anomaly": 30.6527,
        "meta_ephemeris_type": 0,
        "meta_classification_type": "U",
        "meta_norad_cat_id": 41194,
        "meta_element_set_no": 999,
        "meta_rev_at_epoch": 3666,
        "meta_bstar": 0,
        "meta_mean_motion_dot": -3.21e-06,
        "meta_mean_motion_ddot": 0,
        "tle_line1": "1 41194U 15083A   25347.08203426 -.00000321  00000+0  00000+0 0  9997",
        "tle_line2": "2 41194   0.1714  81.1659 0003435 105.4224  30.6527  1.00269408 36661"
      },
      "geometry": {
        "type": "Point",
        "coordinates": [
          -112.24088287305361,
          0.018737099989938836
        ]
      }
    },
    {
      "type": "Feature",
      "properties": {
        "norad_id": 41240,
        "name": "JASON-3",
        "group": "resource",
        "lat": 60.3412690665576,
        "lon": -153.82808107965434,
        "alt_km": 1309.420939689745,
        "timestamp": "2025-12-14T03:55:52.450625+00:00",
        "meta_object_name": "JASON-3",
        "meta_object_id": "2016-002A",
        "meta_epoch": "2025-12-13T07:03:13.235616",
        "meta_mean_motion": 12.87626562,
        "meta_eccentricity": 0.00071375,
        "meta_inclination": 66.039,
        "meta_ra_of_asc_node": 156.6591,
        "meta_arg_of_pericenter": 270.8614,
        "meta_mean_anomaly": 89.1587,
        "meta_ephemeris_type": 0,
        "meta_classification_type": "U",
        "meta_norad_cat_id": 41240,
        "meta_element_set_no": 999,
        "meta_rev_at_epoch": 46331,
        "meta_bstar": 0.00015889661,
        "meta_mean_motion_dot": -2.2e-07,
        "meta_mean_motion_ddot": 0,
        "tle_line1": "1 41240U 16002A   25347.29390319 -.00000022  00000+0  15890-3 0  9997",
        "tle_line2": "2 41240  66.0390 156.6591 0007137 270.8614  89.1587 12.87626562463316"
      },
      "geometry": {
        "type": "Point",
        "coordinates": [
          -153.82808107965434,
          60.3412690665576
        ]
      }
    },
    {
      "type": "Feature",
      "properties": {
        "norad_id": 41335,
        "name": "SENTINEL-3A",
        "group": "resource",
        "lat": 74.12816159149749,
        "lon": -94.55254140046529,
        "alt_km": 794.9115374395096,
        "timestamp": "2025-12-14T03:55:52.450636+00:00",
        "meta_object_name": "SENTINEL-3A",
        "meta_object_id": "2016-011A",
        "meta_epoch": "2025-12-13T07:15:04.366368",
        "meta_mean_motion": 14.26731217,
        "meta_eccentricity": 9.526e-05,
        "meta_inclination": 98.6315,
        "meta_ra_of_asc_node": 52.3061,
        "meta_arg_of_pericenter": 91.2533,
        "meta_mean_anomaly": 268.8756,
        "meta_ephemeris_type": 0,
        "meta_classification_type": "U",
        "meta_norad_cat_id": 41335,
        "meta_element_set_no": 999,
        "meta_rev_at_epoch": 51155,
        "meta_bstar": 0.00013426813,
        "meta_mean_motion_dot": 2.81e-06,
        "meta_mean_motion_ddot": 0,
        "tle_line1": "1 41335U 16011A   25347.30213387  .00000281  00000+0  13427-3 0  9993",
        "tle_line2": "2 41335  98.6315  52.3061 0000952  91.2533 268.8756 14.26731217511559"
      },
      "geometry": {
        "type": "Point",
        "coordinates": [
          -94.55254140046529,
          74.12816159149749
        ]
      }
    }
  ]
}